1 25940U 99057A   02278.27141461  .00000618  00000-0  22969-3 0  3704
2 25940  98.4413 348.5725 0001330 116.8005 243.3316 14.35513375155991
1 25940U 99057A   02278.75932649  .00000428  00000-0  16373-3 0  3715
2 25940  98.4419 349.0503 0001183 107.6956 252.4352 14.35513248156065
1 25940U 99057A   02279.10783487  .00000421  00000-0  16116-3 0  3728
2 25940  98.4414 349.3915 0001235 106.6544 253.4752 14.35513377156114
1 25940U 99057A   02279.17753702  .00000487  00000-0  18434-3 0  3730
2 25940  98.4412 349.4598 0001190 102.5447 257.5891 14.35513895156122
1 25940U 99057A   02279.24723828  .00000487  00000-0  18434-3 0  3745
2 25940  98.4412 349.5280 0001190 102.3373 257.7946 14.35513968156132
1 25940U 99057A   02279.73514976  .00000313  00000-0  12377-3 0  3750
2 25940  98.4419 350.0059 0001152  98.7358 261.3945 14.35513727156200
1 25940U 99057A   02279.87455327  .00000451  00000-0  17185-3 0  3765
2 25940  98.4426 350.1425 0001145  98.4306 261.7011 14.35514162156222
1 25940U 99057A   02280.15335932  .00000554  00000-0  20761-3 0  3765
2 25940  98.4422 350.4154 0001112  96.4682 263.6639 14.35515024156268
1 25940U 99057A   02280.29276274  .00000487  00000-0  18432-3 0  3771
2 25940  98.4419 350.5522 0001127  95.2958 264.8360 14.35514782156289
1 25940U 99057A   02280.78067361  .00000529  00000-0  19887-3 0  3783
2 25940  98.4425 351.0302 0001113  87.4926 272.6388 14.35515494156357
1 25940U 99057A   02281.12918134  .00000692  00000-0  25560-3 0  3792
2 25940  98.4421 351.3714 0001090  83.9932 276.1409 14.35516672156403
1 25940U 99057A   02281.26858391  .00000570  00000-0  21323-3 0  3805
2 25940  98.4415 351.5081 0001105  87.5208 272.6101 14.35516365156429
1 25940U 99057A   02281.75649455  .00000436  00000-0  16665-3 0  3813
2 25940  98.4412 351.9854 0001037  91.0815 269.0488 14.35516358156493
1 25940U 99057A   02282.17470337  .00000655  00000-0  24243-3 0  3826
2 25940  98.4408 352.3949 0001004  81.4899 278.6420 14.35517749156551
1 25940U 99057A   02282.24440443  .00000676  00000-0  24974-3 0  3834
2 25940  98.4407 352.4632 0001001  83.6613 276.4684 14.35517819156562
1 25940U 99057A   02282.73231424  .00000802  00000-0  29362-3 0  3843
2 25940  98.4414 352.9412 0001018  84.1760 275.9558 14.35519127156634
1 25940U 99057A   02283.15052201  .00000767  00000-0  28138-3 0  3855
2 25940  98.4414 353.3505 0001043  83.8500 276.2791 14.35519591156692
1 25940U 99057A   02283.35962629  .00000639  00000-0  23699-3 0  3867
2 25940  98.4410 353.5552 0001060  84.2652 275.8629 14.35519288156726
1 25940U 99057A   02283.84753615  .00000568  00000-0  21226-3 0  3870
2 25940  98.4405 354.0323 0001051  85.1794 274.9511 14.35519774156796
1 25940U 99057A   02284.12634146  .00000568  00000-0  21226-3 0  3880
2 25940  98.4405 354.3051 0001051  84.3497 275.7809 14.35520114156832
1 25940U 99057A   02284.26574437  .00000576  00000-0  21509-3 0  3895
2 25940  98.4401 354.4412 0001065  86.9901 273.1421 14.35520298156850
1 25940U 99057A   02284.75365277  .00000815  00000-0  29809-3 0  3908
2 25940  98.4396 354.9181 0001143  95.7890 264.3457 14.35522122156920
1 25940U 99057A   02285.17185967  .00000572  00000-0  21387-3 0  3915
2 25940  98.4393 355.3272 0001197  91.0912 269.0381 14.35521813156986
1 25940U 99057A   02285.24156149  .00000509  00000-0  19182-3 0  3924
2 25940  98.4394 355.3953 0001213  90.4308 269.7006 14.35521625156997
1 25940U 99057A   02285.59006790  .00000635  00000-0  23565-3 0  3939
2 25940  98.4405 355.7373 0001153  80.1258 280.0050 14.35522297157041
1 25940U 99057A   02285.72947000  .00000750  00000-0  27559-3 0  3948
2 25940  98.4399 355.8732 0001185  83.4230 276.7079 14.35522945157069
1 25940U 99057A   02286.14767706  .00000817  00000-0  29902-3 0  3957
2 25940  98.4400 356.2823 0001202  84.3301 275.8016 14.35523813157120
1 25940U 99057A   02286.21737831  .00000680  00000-0  25121-3 0  3969
2 25940  98.4398 356.3507 0001223  85.3731 274.7580 14.35523410157135
1 25940U 99057A   02286.77498778  .00000599  00000-0  22303-3 0  3973
2 25940  98.4391 356.8957 0001194  87.8415 272.2905 14.35523869157216
1 25940U 99057A   02287.12349354  .00000576  00000-0  21527-3 0  3981
2 25940  98.4391 357.2366 0001195  87.6067 272.5256 14.35524201157265
1 25940U 99057A   02287.47199912  .00000506  00000-0  19084-3 0  3991
2 25940  98.4386 357.5776 0001203  90.7036 269.4288 14.35524397157310
1 25940U 99057A   02287.75080310  .00000658  00000-0  24353-3 0  4009
2 25940  98.4402 357.8516 0001228  89.7667 270.3663 14.35525411157359
1 25940U 99057A   02288.16900944  .00000666  00000-0  24650-3 0  4019
2 25940  98.4403 358.2607 0001233  87.4645 272.6682 14.35525965157410
1 25940U 99057A   02288.23871047  .00000666  00000-0  24650-3 0  4029
2 25940  98.4403 358.3289 0001233  87.2571 272.8756 14.35526064157429
1 25940U 99057A   02288.79631847  .00000679  00000-0  25080-3 0  4035
2 25940  98.4393 358.8740 0001276  90.0151 270.1177 14.35526900157503
1 25940U 99057A   02289.14482351  .00000650  00000-0  24077-3 0  4044
2 25940  98.4396 359.2147 0001283  91.1874 268.9458 14.35527242157556
1 25940U 99057A   02289.21452450  .00000426  00000-0  16314-3 0  4056
2 25940  98.4397 359.2828 0001328  94.1906 265.9399 14.35526340157562
1 25940U 99057A   02289.56303020  .00000094  00000-0  47571-4 0  4064
2 25940  98.4391 359.6228 0001222  95.3220 264.8046 14.35524899157619
1 25940U 99057A   02289.56303136  .00000094  00000-0  47572-4 0  4074
2 25940  98.4391 359.6228 0001222  95.3224 264.8101 14.35524899157615
1 25940U 99057A   02289.63273266  .00000080  00000-0  42978-4 0  4094
2 25940  98.4442 359.6947 0000443 287.0284  72.9788 14.35459416157622
1 25940U 99057A   02290.12754166  .00000080  00000-0  42978-4 0  4105
2 25940  98.4404   0.1763 0001033 131.1040 264.3918 14.35443643157693
1 25940U 99057A   02290.19039851  .00000080  00000-0  42978-4 0  4110
2 25940  98.4409   0.2381 0000972 121.6808 238.4446 14.35443201157702
1 25940U 99057A   02290.26010408 -.00001093  00000-0 -36547-3 0  4127
2 25940  98.4411   0.3066 0000764  95.1181 265.0048 14.35440637157719
1 25940U 99057A   02290.74803514  .00000062  00000-0  21621-4 0  4129
2 25940  98.4521   0.7936 0004178  83.8063 276.4087 14.35481890157789
1 25940U 99057A   02291.02686231  .00000634  00000-0  23566-3 0  4131
2 25940  98.4406   1.0564 0000833  88.2834 271.8544 14.35443768157825
1 25940U 99057A   02291.16627048  .00001228  00000-0  44240-3 0  4140
2 25940  98.4409   1.1924 0000818  76.1344 283.9961 14.35445604157844
1 25940U 99057A   02291.23597486  .00000847  00000-0  30960-3 0  4151
2 25940  98.4408   1.2607 0000829  76.8963 283.2293 14.35444727157855
1 25940U 99057A   02291.79361465  .00000758  00000-0  27887-3 0  4164
2 25940  98.4406   1.8060 0000827  76.9754 283.1506 14.35445446157933
1 25940U 99057A   02292.14213998  .00000612  00000-0  22808-3 0  4179
2 25940  98.4407   2.1469 0000835  79.9519 280.1763 14.35445432157984
1 25940U 99057A   02292.21184488  .00000568  00000-0  21279-3 0  4180
2 25940  98.4404   2.2152 0000842  79.7904 280.3371 14.35445353157995
1 25940U 99057A   02292.76948452  .00000602  00000-0  22439-3 0  4198
2 25940  98.4417   2.7617 0000894  62.8453 297.2821 14.35446129158078
1 25940U 99057A   02293.11800910  .00000584  00000-0  21827-3 0  4205
2 25940  98.4417   3.1027 0000890  62.5576 297.5700 14.35446489158121
1 25940U 99057A   02293.39682862  .00000584  00000-0  21827-3 0  4210
2 25940  98.4417   3.3755 0000891  61.7280 298.3995 14.35446838158162
1 25940U 99057A   02293.74535196  .00000774  00000-0  28435-3 0  4220
2 25940  98.4408   3.7158 0000874  69.7682 290.3588 14.35448239158211
1 25940U 99057A   02294.16358091  .00000724  00000-0  26702-3 0  4235
2 25940  98.4406   4.1251 0000899  66.0223 294.1051 14.35448744158270
1 25940U 99057A   02294.23328581  .00000721  00000-0  26595-3 0  4242
2 25940  98.4406   4.1933 0000898  66.7723 293.3553 14.35448778158284
1 25940U 99057A   02294.86062866  .00000777  00000-0  28549-3 0  4255
2 25940  98.4398   4.8063 0000884  75.5538 284.5746 14.35449856158376
1 25940U 99057A   02295.13944784  .00000739  00000-0  27204-3 0  4260
2 25940  98.4399   5.0794 0000866  82.4418 277.6880 14.35450097158411
1 25940U 99057A   02295.20915229  .00000628  00000-0  23335-3 0  4279
2 25940  98.4393   5.1477 0000881  84.2766 275.8515 14.35449885158426
1 25940U 99057A   02295.76679053  .00000300  00000-0  11951-3 0  4281
2 25940  98.4400   5.6940 0000828  96.9577 263.1703 14.35449235158503
1 25940U 99057A   02295.83649529  .00000294  00000-0  11738-3 0  4290
2 25940  98.4398   5.7621 0000835  98.7611 261.3670 14.35449266158511
1 25940U 99057A   02296.18501875  .00000414  00000-0  15903-3 0  4292
2 25940  98.4396   6.1031 0000800  93.8797 266.2493 14.35450171158561
1 25940U 99057A   02296.25472322  .00000434  00000-0  16591-3 0  4302
2 25940  98.4388   6.1703 0000845  92.9816 267.1472 14.35450432158577
1 25940U 99057A   02296.74265570  .00000498  00000-0  18834-3 0  4314
2 25940  98.4389   6.6476 0000864  93.5852 266.5432 14.35451228158649
1 25940U 99057A   02297.16088334  .00000567  00000-0  21229-3 0  4322
2 25940  98.4388   7.0568 0000850  87.9152 272.2130 14.35452076158708
1 25940U 99057A   02297.23058798  .00000540  00000-0  20302-3 0  4334
2 25940  98.4387   7.1250 0000856  88.8726 271.2552 14.35452011158716
1 25940U 99057A   02297.71852012  .00000588  00000-0  21952-3 0  4343
2 25940  98.4387   7.6024 0000821  90.5128 269.6153 14.35452871158787
1 25940U 99057A   02297.85792926  .00000588  00000-0  21952-3 0  4356
2 25940  98.4387   7.7388 0000821  90.0980 270.0300 14.35453046158800
1 25940U 99057A   02298.13674787  .00000561  00000-0  21012-3 0  4361
2 25940  98.4391   8.0117 0000856  97.3659 262.7632 14.35453159158845
1 25940U 99057A   02298.27615693  .00000513  00000-0  19343-3 0  4379
2 25940  98.4388   8.1481 0000869  97.2266 262.9019 14.35453167158865
1 25940U 99057A   02298.76408833  .00000647  00000-0  24011-3 0  4386
2 25940  98.4387   8.6254 0000888  99.1564 260.9722 14.35454379158933
